start=new Date('2021-12-31T00:00:00.000Z').valueOf();
sats=[{"SITE":"AFETR","OBJECT_TYPE":"PAYLOAD","TLE_LINE2":"2 48596  53.0536 169.1344 0002573  84.6832 275.4450 15.06412028 34948","OBJECT_NAME":"STARLINK-2253","OBJECT_ID":"2021-041AV","RA_OF_ASC_NODE":"169.1344","ELEMENT_SET_NO":"999","REF_FRAME":"TEME","CLASSIFICATION_TYPE":"U","INCLINATION":"53.0536","SEMIMAJOR_AXIS":"6925.312","EPHEMERIS_TYPE":"0","ECCENTRICITY":"0.00025730","MEAN_ELEMENT_THEORY":"SGP4","MEAN_ANOMALY":"275.4450","FILE":"3255240","LAUNCH_DATE":"2021-05-15","APOAPSIS":"548.959","BSTAR":"0.00015300000000","MEAN_MOTION_DOT":"0.00001998","PERIAPSIS":"545.395","REV_AT_EPOCH":"3494","RCS_SIZE":"LARGE","EPOCH":"2021-12-30T21:28:50.076192","NORAD_CAT_ID":"48596","ARG_OF_PERICENTER":"84.6832","MEAN_MOTION_DDOT":"0.0000000000000","GP_ID":"192796553","PERIOD":"95.591","COUNTRY_CODE":"US","CENTER_NAME":"EARTH","MEAN_MOTION":"15.06412028","DECAY_DATE":null,"TIME_SYSTEM":"UTC","TLE_LINE1":"1 48596U 21041AV  21364.89502403  .00001998  00000-0  15300-3 0  9996"},{"LAUNCH_DATE":"2021-05-15","APOAPSIS":"548.917","MEAN_ANOMALY":"267.2447","FILE":"3255240","REV_AT_EPOCH":"3575","RCS_SIZE":"LARGE","BSTAR":"-0.00000267460000","MEAN_MOTION_DOT":"-0.00000322","PERIAPSIS":"545.529","COUNTRY_CODE":"US","PERIOD":"95.592","CENTER_NAME":"EARTH","MEAN_MOTION":"15.06397040","TIME_SYSTEM":"UTC","TLE_LINE1":"1 48597U 21041AW  21364.90238822 -.00000322  00000-0 -26746-5 0  9990","DECAY_DATE":null,"ARG_OF_PERICENTER":"92.8822","GP_ID":"192795302","MEAN_MOTION_DDOT":"0.0000000000000","EPOCH":"2021-12-30T21:39:26.342208","NORAD_CAT_ID":"48597","OBJECT_ID":"2021-041AW","OBJECT_NAME":"STARLINK-2255","REF_FRAME":"TEME","ELEMENT_SET_NO":"999","RA_OF_ASC_NODE":"169.1107","SITE":"AFETR","TLE_LINE2":"2 48597  53.0557 169.1107 0002446  92.8822 267.2447 15.06397040 35759","OBJECT_TYPE":"PAYLOAD","ECCENTRICITY":"0.00024460","MEAN_ELEMENT_THEORY":"SGP4","EPHEMERIS_TYPE":"0","INCLINATION":"53.0557","SEMIMAJOR_AXIS":"6925.358","CLASSIFICATION_TYPE":"U"},{"TLE_LINE2":"2 48598  53.0534 169.0865 0002080  92.9947 267.1280 15.06404485 34944","OBJECT_TYPE":"PAYLOAD","SITE":"AFETR","RA_OF_ASC_NODE":"169.0865","ELEMENT_SET_NO":"999","REF_FRAME":"TEME","OBJECT_NAME":"STARLINK-2256","OBJECT_ID":"2021-041AX","CLASSIFICATION_TYPE":"U","SEMIMAJOR_AXIS":"6925.335","INCLINATION":"53.0534","EPHEMERIS_TYPE":"0","MEAN_ELEMENT_THEORY":"SGP4","ECCENTRICITY":"0.00020800","MEAN_MOTION_DOT":"0.00001367","PERIAPSIS":"545.759","BSTAR":"0.00011064000000","RCS_SIZE":"LARGE","REV_AT_EPOCH":"3494","FILE":"3255240","MEAN_ANOMALY":"267.1280","APOAPSIS":"548.640","LAUNCH_DATE":"2021-05-15","NORAD_CAT_ID":"48598","EPOCH":"2021-12-30T21:44:45.413088","GP_ID":"192796051","MEAN_MOTION_DDOT":"0.0000000000000","ARG_OF_PERICENTER":"92.9947","DECAY_DATE":null,"TIME_SYSTEM":"UTC","TLE_LINE1":"1 48598U 21041AX  21364.90608117  .00001367  00000-0  11064-3 0  9992","MEAN_MOTION":"15.06404485","PERIOD":"95.592","COUNTRY_CODE":"US","CENTER_NAME":"EARTH"},{"NORAD_CAT_ID":"48599","EPOCH":"2021-12-30T19:11:28.355136","GP_ID":"192796303","MEAN_MOTION_DDOT":"0.0000000000000","ARG_OF_PERICENTER":"97.5061","DECAY_DATE":null,"TIME_SYSTEM":"UTC","TLE_LINE1":"1 48599U 21041AY  21364.79963374 -.00000723  00000-0 -29640-4 0  9996","MEAN_MOTION":"15.06393020","PERIOD":"95.593","COUNTRY_CODE":"US","CENTER_NAME":"EARTH","MEAN_MOTION_DOT":"-0.00000723","PERIAPSIS":"545.584","BSTAR":"-0.00002964000000","RCS_SIZE":"LARGE","REV_AT_EPOCH":"3609","FILE":"3255240","MEAN_ANOMALY":"262.6199","APOAPSIS":"548.886","LAUNCH_DATE":"2021-05-15","CLASSIFICATION_TYPE":"U","SEMIMAJOR_AXIS":"6925.370","INCLINATION":"53.0553","EPHEMERIS_TYPE":"0","MEAN_ELEMENT_THEORY":"SGP4","ECCENTRICITY":"0.00023840","OBJECT_TYPE":"PAYLOAD","TLE_LINE2":"2 48599  53.0553 144.5512 0002384  97.5061 262.6199 15.06393020 36097","SITE":"AFETR","RA_OF_ASC_NODE":"144.5512","ELEMENT_SET_NO":"999","REF_FRAME":"TEME","OBJECT_NAME":"STARLINK-2274","OBJECT_ID":"2021-041AY"},{"BSTAR":"0.00001041600000","MEAN_MOTION_DOT":"-0.00000127","PERIAPSIS":"545.625","REV_AT_EPOCH":"3588","RCS_SIZE":"LARGE","MEAN_ANOMALY":"266.5248","FILE":"3255240","LAUNCH_DATE":"2021-05-15","APOAPSIS":"548.799","DECAY_DATE":null,"TIME_SYSTEM":"UTC","TLE_LINE1":"1 48600U 21041AZ  21364.83695145 -.00000127  00000-0  10416-4 0  9990","PERIOD":"95.592","COUNTRY_CODE":"US","CENTER_NAME":"EARTH","MEAN_MOTION":"15.06400482","EPOCH":"2021-12-30T20:05:12.605280","NORAD_CAT_ID":"48600","ARG_OF_PERICENTER":"93.6004","MEAN_MOTION_DDOT":"0.0000000000000","GP_ID":"192797053","RA_OF_ASC_NODE":"159.3827","REF_FRAME":"TEME","ELEMENT_SET_NO":"999","OBJECT_NAME":"STARLINK-2275","OBJECT_ID":"2021-041AZ","SITE":"AFETR","OBJECT_TYPE":"PAYLOAD","TLE_LINE2":"2 48600  53.0538 159.3827 0002292  93.6004 266.5248 15.06400482 35883","EPHEMERIS_TYPE":"0","ECCENTRICITY":"0.00022920","MEAN_ELEMENT_THEORY":"SGP4","CLASSIFICATION_TYPE":"U","INCLINATION":"53.0538","SEMIMAJOR_AXIS":"6925.347"},{"DECAY_DATE":null,"TLE_LINE1":"1 48602U 21041BB  21364.83281006  .00000340  00000-0  41761-4 0  9992","TIME_SYSTEM":"UTC","MEAN_MOTION":"15.06391627","COUNTRY_CODE":"US","PERIOD":"95.593","CENTER_NAME":"EARTH","NORAD_CAT_ID":"48602","EPOCH":"2021-12-30T19:59:14.789184","MEAN_MOTION_DDOT":"0.0000000000000","GP_ID":"192795802","ARG_OF_PERICENTER":"95.7969","MEAN_MOTION_DOT":"0.00000340","PERIAPSIS":"545.967","BSTAR":"0.00004176100000","RCS_SIZE":"LARGE","REV_AT_EPOCH":"3608","FILE":"3255240","MEAN_ANOMALY":"264.3229","APOAPSIS":"548.511","LAUNCH_DATE":"2021-05-15","EPHEMERIS_TYPE":"0","MEAN_ELEMENT_THEORY":"SGP4","ECCENTRICITY":"0.00018370","CLASSIFICATION_TYPE":"U","SEMIMAJOR_AXIS":"6925.374","INCLINATION":"53.0519","RA_OF_ASC_NODE":"144.4230","REF_FRAME":"TEME","ELEMENT_SET_NO":"999","OBJECT_NAME":"STARLINK-2713","OBJECT_ID":"2021-041BB","TLE_LINE2":"2 48602  53.0519 144.4230 0001837  95.7969 264.3229 15.06391627 36082","OBJECT_TYPE":"PAYLOAD","SITE":"AFETR"},{"RA_OF_ASC_NODE":"140.4008","ELEMENT_SET_NO":"999","REF_FRAME":"TEME","OBJECT_NAME":"STARLINK-2714","OBJECT_ID":"2021-041BC","SITE":"AFETR","OBJECT_TYPE":"PAYLOAD","TLE_LINE2":"2 48603  53.0542 140.4008 0002376 104.8092 255.3160 15.06392311 36137","EPHEMERIS_TYPE":"0","ECCENTRICITY":"0.00023760","MEAN_ELEMENT_THEORY":"SGP4","CLASSIFICATION_TYPE":"U","INCLINATION":"53.0542","SEMIMAJOR_AXIS":"6925.372","BSTAR":"0.00002396500000","MEAN_MOTION_DOT":"0.00000075","PERIAPSIS":"545.592","REV_AT_EPOCH":"3613","RCS_SIZE":"LARGE","MEAN_ANOMALY":"255.3160","FILE":"3255239","LAUNCH_DATE":"2021-05-15","APOAPSIS":"548.883","DECAY_DATE":null,"TIME_SYSTEM":"UTC","TLE_LINE1":"1 48603U 21041BC  21364.61300814  .00000075  00000-0  23965-4 0  9999","CENTER_NAME":"EARTH","COUNTRY_CODE":"US","PERIOD":"95.593","MEAN_MOTION":"15.06392311","EPOCH":"2021-12-30T14:42:43.903296","NORAD_CAT_ID":"48603","ARG_OF_PERICENTER":"104.8092","GP_ID":"192770603","MEAN_MOTION_DDOT":"0.0000000000000"},{"TLE_LINE2":"2 48604  53.0550 169.1995 0002342  89.5160 270.6097 15.06402656 35758","OBJECT_TYPE":"PAYLOAD","SITE":"AFETR","OBJECT_NAME":"STARLINK-2757","OBJECT_ID":"2021-041BD","RA_OF_ASC_NODE":"169.1995","ELEMENT_SET_NO":"999","REF_FRAME":"TEME","CLASSIFICATION_TYPE":"U","SEMIMAJOR_AXIS":"6925.340","INCLINATION":"53.0550","EPHEMERIS_TYPE":"0","MEAN_ELEMENT_THEORY":"SGP4","ECCENTRICITY":"0.00023420","FILE":"3255240","MEAN_ANOMALY":"270.6097","APOAPSIS":"548.827","LAUNCH_DATE":"2021-05-15","PERIAPSIS":"545.584","MEAN_MOTION_DOT":"0.00001214","BSTAR":"0.00010041000000","RCS_SIZE":"LARGE","REV_AT_EPOCH":"3575","NORAD_CAT_ID":"48604","EPOCH":"2021-12-30T21:07:34.792320","GP_ID":"192796803","MEAN_MOTION_DDOT":"0.0000000000000","ARG_OF_PERICENTER":"89.5160","MEAN_MOTION":"15.06402656","COUNTRY_CODE":"US","CENTER_NAME":"EARTH","PERIOD":"95.592","DECAY_DATE":null,"TIME_SYSTEM":"UTC","TLE_LINE1":"1 48604U 21041BD  21364.88026380  .00001214  00000-0  10041-3 0  9998"},{"OBJECT_TYPE":"PAYLOAD","TLE_LINE2":"2 48638  53.0555 144.7089 0002384  96.4591 263.6669 15.06389034 33180","SITE":"AFETR","OBJECT_NAME":"STARLINK-2758","OBJECT_ID":"2021-044A","RA_OF_ASC_NODE":"144.7089","ELEMENT_SET_NO":"999","REF_FRAME":"TEME","CLASSIFICATION_TYPE":"U","SEMIMAJOR_AXIS":"6925.382","INCLINATION":"53.0555","EPHEMERIS_TYPE":"0","MEAN_ELEMENT_THEORY":"SGP4","ECCENTRICITY":"0.00023840","FILE":"3255240","MEAN_ANOMALY":"263.6669","APOAPSIS":"548.898","LAUNCH_DATE":"2021-05-26","PERIAPSIS":"545.596","MEAN_MOTION_DOT":"-0.00001402","BSTAR":"-0.00007521200000","RCS_SIZE":"LARGE","REV_AT_EPOCH":"3318","NORAD_CAT_ID":"48638","EPOCH":"2021-12-30T18:22:20.773344","MEAN_MOTION_DDOT":"0.0000000000000","GP_ID":"192795307","ARG_OF_PERICENTER":"96.4591","MEAN_MOTION":"15.06389034","CENTER_NAME":"EARTH","COUNTRY_CODE":"US","PERIOD":"95.593","DECAY_DATE":null,"TIME_SYSTEM":"UTC","TLE_LINE1":"1 48638U 21044A   21364.76551821 -.00001402  00000-0 -75212-4 0  9991"},{"ECCENTRICITY":"0.00021060","MEAN_ELEMENT_THEORY":"SGP4","EPHEMERIS_TYPE":"0","INCLINATION":"53.0565","SEMIMAJOR_AXIS":"6925.347","CLASSIFICATION_TYPE":"U","OBJECT_ID":"2021-044B","OBJECT_NAME":"STARLINK-2739","ELEMENT_SET_NO":"999","REF_FRAME":"TEME","RA_OF_ASC_NODE":"145.3612","SITE":"AFETR","TLE_LINE2":"2 48639  53.0565 145.3612 0002106 109.4946 250.6271 15.06400407 33163","OBJECT_TYPE":"PAYLOAD","CENTER_NAME":"EARTH","COUNTRY_CODE":"US","PERIOD":"95.592","MEAN_MOTION":"15.06400407","TLE_LINE1":"1 48639U 21044B   21364.61806938 -.00000012  00000-0  18128-4 0  9996","TIME_SYSTEM":"UTC","DECAY_DATE":null,"ARG_OF_PERICENTER":"109.4946","MEAN_MOTION_DDOT":"0.0000000000000","GP_ID":"192796056","EPOCH":"2021-12-30T14:50:01.194432","NORAD_CAT_ID":"48639","LAUNCH_DATE":"2021-05-26","APOAPSIS":"548.671","MEAN_ANOMALY":"250.6271","FILE":"3255240","REV_AT_EPOCH":"3316","RCS_SIZE":"LARGE","BSTAR":"0.00001812800000","PERIAPSIS":"545.754","MEAN_MOTION_DOT":"-0.00000012"}];
